{
  "type": "FeatureCollection",
  "features": [
    {
      "type": "Feature",
      "properties": {
        "norad_id": 38755,
        "name": "SPOT 6",
        "group": "resource",
        "lat": 74.27565349183402,
        "lon": 35.664215020831136,
        "alt_km": 689.9031709289457,
        "timestamp": "2025-12-27T18:38:03.136185+00:00",
        "meta_object_name": "SPOT 6",
        "meta_object_id": "2012-047A",
        "meta_epoch": "2025-12-27T11:41:56.283072",
        "meta_mean_motion": 14.58545912,
        "meta_eccentricity": 0.0001233,
        "meta_inclination": 98.1549,
        "meta_ra_of_asc_node": 65.9984,
        "meta_arg_of_pericenter": 77.5925,
        "meta_mean_anomaly": 282.5412,
        "meta_ephemeris_type": 0,
        "meta_classification_type": "U",
        "meta_norad_cat_id": 38755,
        "meta_element_set_no": 999,
        "meta_rev_at_epoch": 70802,
        "meta_bstar": 0.00013747,
        "meta_mean_motion_dot": 5.94e-06,
        "meta_mean_motion_ddot": 0,
        "tle_line1": "1 38755U 12047A   25361.48745698  .00000594  00000+0  13747-3 0  9992",
        "tle_line2": "2 38755  98.1549  65.9984 0001233  77.5925 282.5412 14.58545912708026"
      },
      "geometry": {
        "type": "Point",
        "coordinates": [
          35.664215020831136,
          74.27565349183402
        ]
      }
    },
    {
      "type": "Feature",
      "properties": {
        "norad_id": 39019,
        "name": "PLEIADES 1B",
        "group": "resource",
        "lat": -24.694013896911656,
        "lon": 77.98045494211814,
        "alt_km": 703.6503114360476,
        "timestamp": "2025-12-27T18:38:03.136195+00:00",
        "meta_object_name": "PLEIADES 1B",
        "meta_object_id": "2012-068A",
        "meta_epoch": "2025-12-27T12:09:45.749664",
        "meta_mean_motion": 14.58567082,
        "meta_eccentricity": 0.0001152,
        "meta_inclination": 98.1772,
        "meta_ra_of_asc_node": 73.9241,
        "meta_arg_of_pericenter": 86.0163,
        "meta_mean_anomaly": 274.1168,
        "meta_ephemeris_type": 0,
        "meta_classification_type": "U",
        "meta_norad_cat_id": 39019,
        "meta_element_set_no": 999,
        "meta_rev_at_epoch": 69582,
        "meta_bstar": 0.00014624,
        "meta_mean_motion_dot": 6.35e-06,
        "meta_mean_motion_ddot": 0,
        "tle_line1": "1 39019U 12068A   25361.50677951  .00000635  00000+0  14624-3 0  9999",
        "tle_line2": "2 39019  98.1772  73.9241 0001152  86.0163 274.1168 14.58567082695822"
      },
      "geometry": {
        "type": "Point",
        "coordinates": [
          77.98045494211814,
          -24.694013896911656
        ]
      }
    },
    {
      "type": "Feature",
      "properties": {
        "norad_id": 39030,
        "name": "GOKTURK 2",
        "group": "resource",
        "lat": 14.615423548376986,
        "lon": -159.32866396264552,
        "alt_km": 645.1165267788465,
        "timestamp": "2025-12-27T18:38:03.136208+00:00",
        "meta_object_name": "GOKTURK 2",
        "meta_object_id": "2012-073A",
        "meta_epoch": "2025-12-27T13:41:03.223680",
        "meta_mean_motion": 14.75310495,
        "meta_eccentricity": 0.0001507,
        "meta_inclination": 97.6888,
        "meta_ra_of_asc_node": 202.4942,
        "meta_arg_of_pericenter": 106.4563,
        "meta_mean_anomaly": 253.6812,
        "meta_ephemeris_type": 0,
        "meta_classification_type": "U",
        "meta_norad_cat_id": 39030,
        "meta_element_set_no": 999,
        "meta_rev_at_epoch": 69920,
        "meta_bstar": 5.2507e-05,
        "meta_mean_motion_dot": 3.09e-06,
        "meta_mean_motion_ddot": 0,
        "tle_line1": "1 39030U 12073A   25361.57017620  .00000309  00000+0  52507-4 0  9997",
        "tle_line2": "2 39030  97.6888 202.4942 0001507 106.4563 253.6812 14.75310495699206"
      },
      "geometry": {
        "type": "Point",
        "coordinates": [
          -159.32866396264552,
          14.615423548376986
        ]
      }
    },
    {
      "type": "Feature",
      "properties": {
        "norad_id": 39084,
        "name": "LANDSAT 8",
        "group": "resource",
        "lat": 65.67037580458124,
        "lon": 51.016021491529436,
        "alt_km": 695.4135362845427,
        "timestamp": "2025-12-27T18:38:03.136230+00:00",
        "meta_object_name": "LANDSAT 8",
        "meta_object_id": "2013-008A",
        "meta_epoch": "2025-12-27T11:44:07.927296",
        "meta_mean_motion": 14.57117435,
        "meta_eccentricity": 0.0001055,
        "meta_inclination": 98.2054,
        "meta_ra_of_asc_node": 69.3435,
        "meta_arg_of_pericenter": 94.5045,
        "meta_mean_anomaly": 265.6274,
        "meta_ephemeris_type": 0,
        "meta_classification_type": "U",
        "meta_norad_cat_id": 39084,
        "meta_element_set_no": 999,
        "meta_rev_at_epoch": 67289,
        "meta_bstar": 0.00011453,
        "meta_mean_motion_dot": 4.71e-06,
        "meta_mean_motion_ddot": 0,
        "tle_line1": "1 39084U 13008A   25361.48898064  .00000471  00000+0  11453-3 0  9998",
        "tle_line2": "2 39084  98.2054  69.3435 0001055  94.5045 265.6274 14.57117435672894"
      },
      "geometry": {
        "type": "Point",
        "coordinates": [
          51.016021491529436,
          65.67037580458124
        ]
      }
    },
    {
      "type": "Feature",
      "properties": {
        "norad_id": 39086,
        "name": "SARAL",
        "group": "resource",
        "lat": 3.178733384137776,
        "lon": 5.989181599721814,
        "alt_km": 785.2607061511999,
        "timestamp": "2025-12-27T18:38:03.136251+00:00",
        "meta_object_name": "SARAL",
        "meta_object_id": "2013-009A",
        "meta_epoch": "2025-12-27T11:06:30.140640",
        "meta_mean_motion": 14.32762288,
        "meta_eccentricity": 0.0002939,
        "meta_inclination": 98.5504,
        "meta_ra_of_asc_node": 185.2011,
        "meta_arg_of_pericenter": 81.1403,
        "meta_mean_anomaly": 279.0114,
        "meta_ephemeris_type": 0,
        "meta_classification_type": "U",
        "meta_norad_cat_id": 39086,
        "meta_element_set_no": 999,
        "meta_rev_at_epoch": 67101,
        "meta_bstar": 7.4666e-05,
        "meta_mean_motion_dot": 1.6e-06,
        "meta_mean_motion_ddot": 0,
        "tle_line1": "1 39086U 13009A   25361.46284885  .00000160  00000+0  74666-4 0  9990",
        "tle_line2": "2 39086  98.5504 185.2011 0002939  81.1403 279.0114 14.32762288671019"
      },
      "geometry": {
        "type": "Point",
        "coordinates": [
          5.989181599721814,
          3.178733384137776
        ]
      }
    },
    {
      "type": "Feature",
      "properties": {
        "norad_id": 39150,
        "name": "GAOFEN-1",
        "group": "resource",
        "lat": 20.665676794090242,
        "lon": -104.81808656754339,
        "alt_km": 634.1563995294482,
        "timestamp": "2025-12-27T18:38:03.136268+00:00",
        "meta_object_name": "GAOFEN-1",
        "meta_object_id": "2013-018A",
        "meta_epoch": "2025-12-27T13:02:19.631328",
        "meta_mean_motion": 14.76505312,
        "meta_eccentricity": 0.0018541,
        "meta_inclination": 97.9304,
        "meta_ra_of_asc_node": 71.9391,
        "meta_arg_of_pericenter": 98.1456,
        "meta_mean_anomaly": 262.1858,
        "meta_ephemeris_type": 0,
        "meta_classification_type": "U",
        "meta_norad_cat_id": 39150,
        "meta_element_set_no": 999,
        "meta_rev_at_epoch": 68291,
        "meta_bstar": 0.00011559,
        "meta_mean_motion_dot": 7.56e-06,
        "meta_mean_motion_ddot": 0,
        "tle_line1": "1 39150U 13018A   25361.54328277  .00000756  00000+0  11559-3 0  9997",
        "tle_line2": "2 39150  97.9304  71.9391 0018541  98.1456 262.1858 14.76505312682916"
      },
      "geometry": {
        "type": "Point",
        "coordinates": [
          -104.81808656754339,
          20.665676794090242
        ]
      }
    },
    {
      "type": "Feature",
      "properties": {
        "norad_id": 39160,
        "name": "VNREDSAT 1",
        "group": "resource",
        "lat": -44.26440258168101,
        "lon": 64.33576219816369,
        "alt_km": 684.44520928363,
        "timestamp": "2025-12-27T18:38:03.136279+00:00",
        "meta_object_name": "VNREDSAT 1",
        "meta_object_id": "2013-021B",
        "meta_epoch": "2025-12-27T12:16:52.670208",
        "meta_mean_motion": 14.64945061,
        "meta_eccentricity": 0.0001172,
        "meta_inclination": 97.935,
        "meta_ra_of_asc_node": 56.2674,
        "meta_arg_of_pericenter": 82.4157,
        "meta_mean_anomaly": 277.7179,
        "meta_ephemeris_type": 0,
        "meta_classification_type": "U",
        "meta_norad_cat_id": 39160,
        "meta_element_set_no": 999,
        "meta_rev_at_epoch": 67515,
        "meta_bstar": 0.00017186,
        "meta_mean_motion_dot": 8.74e-06,
        "meta_mean_motion_ddot": 0,
        "tle_line1": "1 39160U 13021B   25361.51172072  .00000874  00000+0  17186-3 0  9992",
        "tle_line2": "2 39160  97.9350  56.2674 0001172  82.4157 277.7179 14.64945061675156"
      },
      "geometry": {
        "type": "Point",
        "coordinates": [
          64.33576219816369,
          -44.26440258168101
        ]
      }
    }
  ]
}